NORAD_CAT_ID,OBJECT_NAME,OBJECT_TYPE,EPOCH,MEAN_MOTION,ECCENTRICITY,INCLINATION,RA_OF_ASC_NODE,ARG_OF_PERICENTER,MEAN_ANOMALY,BSTAR,MEAN_MOTION_DOT,MEAN_MOTION_DDOT,TLE_LINE0,TLE_LINE1,TLE_LINE2,SEMIMAJOR_AXIS,PERIOD,APOGEE,PERIGEE,DECAYED
54078.0,STARLINK-5138,PAYLOAD,2023-05-21 13:13:10,15.08838467,9.04e-05,53.2161,237.2873,94.4947,265.6148,-3.4216e-05,-8.32e-06,0.0,0 STARLINK-5138,1 54078U 22136AD  23141.55081028 -.00000832  00000-0 -34216-4 0  9993,2 54078  53.2161 237.2873 0000904  94.4947 265.6148 15.08838467 32665,6917.885,95.438,540.375,539.125,0.0
54078.0,STARLINK-5138,PAYLOAD,2023-05-22 09:53:11,15.08833163,9.52e-05,53.2157,233.4232,82.1706,277.9394,-4.4465e-05,-9.95e-06,0.0,0 STARLINK-5138,1 54078U 22136AD  23142.41193661 -.00000995  00000-0 -44465-4 0  9993,2 54078  53.2157 233.4232 0000952  82.1706 277.9394 15.08833163 33272,6917.901,95.438,540.425,539.108,0.0
54078.0,STARLINK-5138,PAYLOAD,2023-05-22 13:03:57,15.08835416,9.36e-05,53.2155,232.829,78.7656,281.3441,-2.0969e-05,-6.21e-06,0.0,0 STARLINK-5138,1 54078U 22136AD  23142.54441488 -.00000621  00000-0 -20969-4 0  9999,2 54078  53.2155 232.8290 0000936  78.7656 281.3441 15.08835416 32818,6917.894,95.438,540.407,539.112,0.0
54078.0,STARLINK-5138,PAYLOAD,2023-05-23 11:19:21,15.08828218,9.29e-05,53.2152,228.6662,92.9871,267.1227,0.00010577,1.395e-05,0.0,0 STARLINK-5138,1 54078U 22136AD  23143.47178045  .00001395  00000-0  10577-3 0  9998,2 54078  53.2152 228.6662 0000929  92.9871 267.1227 15.08828218 33435,6917.916,95.438,540.424,539.139,0.0
54078.0,STARLINK-5138,PAYLOAD,2023-05-23 22:27:03,15.08828697,8.08e-05,53.2153,226.5848,90.3433,269.7652,0.00019362,2.794e-05,0.0,0 STARLINK-5138,1 54078U 22136AD  23143.93546067  .00002794  00000-0  19362-3 0  9997,2 54078  53.2153 226.5848 0000808  90.3433 269.7652 15.08828697 33027,6917.915,95.438,540.339,539.221,0.0
54078.0,STARLINK-5138,PAYLOAD,2023-05-24 14:20:54,15.08841109,8.35e-05,53.2151,223.6104,80.7796,279.3291,0.00015249,2.14e-05,0.0,0 STARLINK-5138,1 54078U 22136AD  23144.59785534  .00002140  00000-0  15249-3 0  9999,2 54078  53.2151 223.6104 0000835  80.7796 279.3291 15.08841109 33606,6917.877,95.437,540.32,539.164,0.0
54078.0,STARLINK-5138,PAYLOAD,2023-05-25 14:11:41,15.0884325,9.72e-05,53.2155,219.1483,83.6507,276.4596,9.4865e-05,1.222e-05,0.0,0 STARLINK-5138,1 54078U 22136AD  23145.59145710  .00001222  00000-0  94865-4 0  9998,2 54078  53.2155 219.1483 0000972  83.6507 276.4596 15.08843250 33272,6917.87,95.437,540.408,539.063,0.0
54078.0,STARLINK-5138,PAYLOAD,2023-05-25 23:44:00,15.08842754,9.44e-05,53.2155,217.3641,84.2154,275.8945,5.3636e-05,5.66e-06,0.0,0 STARLINK-5138,1 54078U 22136AD  23145.98889742  .00000566  00000-0  53636-4 0  9992,2 54078  53.2155 217.3641 0000944  84.2154 275.8945 15.08842754 33811,6917.872,95.437,540.39,539.084,0.0
54078.0,STARLINK-5138,PAYLOAD,2023-05-26 10:51:42,15.08847133,9.67e-05,53.2157,215.2828,90.3592,269.7511,7.817e-06,-1.63e-06,0.0,0 STARLINK-5138,1 54078U 22136AD  23146.45257507 -.00000163  00000-0  78170-5 0  9998,2 54078  53.2157 215.2828 0000967  90.3592 269.7511 15.08847133 33408,6917.859,95.437,540.393,539.055,0.0
54078.0,STARLINK-5138,PAYLOAD,2023-05-26 14:02:28,15.08849218,9.66e-05,53.2156,214.6879,92.1061,268.0042,2.6087e-05,1.28e-06,0.0,0 STARLINK-5138,1 54078U 22136AD  23146.58505248  .00000128  00000-0  26087-4 0  9999,2 54078  53.2156 214.6879 0000966  92.1061 268.0042 15.08849218 33425,6917.852,95.437,540.385,539.049,0.0
54078.0,STARLINK-5138,PAYLOAD,2023-05-27 04:20:57,15.08837445,0.0001095,53.2156,212.0122,86.2331,273.8786,3.6424e-05,2.92e-06,0.0,0 STARLINK-5138,1 54078U 22136AD  23147.18121854  .00000292  00000-0  36424-4 0  9991,2 54078  53.2156 212.0122 0001095  86.2331 273.8786 15.08837445 33996,6917.888,95.438,540.511,538.996,0.0
54078.0,STARLINK-5138,PAYLOAD,2023-05-27 10:42:29,15.08832219,9.71e-05,53.2154,210.8224,92.2329,267.8775,0.00014786,2.066e-05,0.0,0 STARLINK-5138,1 54078U 22136AD  23147.44617912  .00002066  00000-0  14786-3 0  9992,2 54078  53.2154 210.8224 0000971  92.2329 267.8775 15.08832219 33556,6917.904,95.438,540.441,539.097,0.0
54078.0,STARLINK-5138,PAYLOAD,2023-05-28 04:11:44,15.08837519,0.0001064,53.2154,207.5512,94.4885,265.6229,3.3307e-06,-2.35e-06,0.0,0 STARLINK-5138,1 54078U 22136AD  23148.17481896 -.00000235  00000-0  33307-5 0  9992,2 54078  53.2154 207.5512 0001064  94.4885 265.6229 15.08837519 33664,6917.888,95.438,540.489,539.017,0.0
54078.0,STARLINK-5138,PAYLOAD,2023-05-28 10:33:16,15.08838639,0.0001073,53.2155,206.3621,93.651,266.4605,1.1038e-05,-1.12e-06,0.0,0 STARLINK-5138,1 54078U 22136AD  23148.43977804 -.00000112  00000-0  11038-4 0  9990,2 54078  53.2155 206.3621 0001073  93.6510 266.4605 15.08838639 34188,6917.885,95.438,540.492,539.007,0.0
54078.0,STARLINK-5138,PAYLOAD,2023-05-29 10:24:03,15.08844729,9.91e-05,53.2156,201.9021,87.5964,272.5142,0.00010484,1.381e-05,0.0,0 STARLINK-5138,1 54078U 22136AD  23149.43337019  .00001381  00000-0  10484-3 0  9990,2 54078  53.2156 201.9021 0000991  87.5964 272.5142 15.08844729 34335,6917.866,95.437,540.416,539.045,0.0
54078.0,STARLINK-5138,PAYLOAD,2023-05-29 19:56:22,15.0883762,9.85e-05,53.2151,200.1168,87.2182,272.8922,2.6587e-05,1.35e-06,0.0,0 STARLINK-5138,1 54078U 22136AD  23149.83081649  .00000135  00000-0  26587-4 0  9997,2 54078  53.2151 200.1168 0000985  87.2182 272.8922 15.08837620 33919,6917.888,95.438,540.434,539.071,0.0
54078.0,STARLINK-5138,PAYLOAD,2023-05-30 03:53:18,15.08830547,0.0001098,53.2153,198.6313,82.733,277.3787,-3.2521e-07,-2.93e-06,0.0,0 STARLINK-5138,1 54078U 22136AD  23150.16202289 -.00000293  00000-0 -32521-6 0  9994,2 54078  53.2153 198.6313 0001098  82.7330 277.3787 15.08830547 34444,6917.909,95.438,540.534,539.015,0.0
54078.0,STARLINK-5138,PAYLOAD,2023-05-30 08:39:28,15.0882946,0.0001047,53.2156,197.7392,88.0965,272.0147,-8.8746e-06,-4.29e-06,0.0,0 STARLINK-5138,1 54078U 22136AD  23150.36074480 -.00000429  00000-0 -88746-5 0  9996,2 54078  53.2156 197.7392 0001047  88.0965 272.0147 15.08829460 33994,6917.913,95.438,540.502,539.053,0.0
54078.0,STARLINK-5138,PAYLOAD,2023-05-30 19:47:10,15.08835031,0.0001,53.2161,195.6581,94.1994,265.9112,-1.7113e-05,-5.6e-06,0.0,0 STARLINK-5138,1 54078U 22136AD  23150.82442300 -.00000560  00000-0 -17113-4 0  9992,2 54078  53.2161 195.6581 0001000  94.1994 265.9112 15.08835031 34069,6917.896,95.438,540.452,539.069,0.0
54078.0,STARLINK-5138,PAYLOAD,2023-05-31 02:08:42,15.08840741,0.0001019,53.2152,194.467,87.47,272.6409,3.8554e-06,-2.26e-06,0.0,0 STARLINK-5138,1 54078U 22136AD  23151.08937897 -.00000226  00000-0  38554-5 0  9992,2 54078  53.2152 194.4670 0001019  87.4700 272.6409 15.08840741 34580,6917.878,95.438,540.448,539.038,0.0
54078.0,STARLINK-5138,PAYLOAD,2023-05-31 08:30:14,15.08840226,0.0001013,53.2152,193.2775,87.4128,272.698,3.8961e-07,-2.82e-06,0.0,0 STARLINK-5138,1 54078U 22136AD  23151.35433960 -.00000282  00000-0  38961-6 0  9999,2 54078  53.2152 193.2775 0001013  87.4128 272.6980 15.08840226 34145,6917.88,95.438,540.445,539.044,0.0
54078.0,STARLINK-5138,PAYLOAD,2023-05-31 19:37:56,15.08839127,9.84e-05,53.2155,191.1964,85.6261,274.4844,4.1521e-05,3.73e-06,0.0,0 STARLINK-5138,1 54078U 22136AD  23151.81801920  .00000373  00000-0  41521-4 0  9999,2 54078  53.2155 191.1964 0000984  85.6261 274.4844 15.08839127 34214,6917.883,95.438,540.429,539.067,0.0
54078.0,STARLINK-5138,PAYLOAD,2023-06-01 09:56:25,15.08836459,9.67e-05,53.2152,188.5194,80.6458,279.4643,0.00010917,1.45e-05,0.0,0 STARLINK-5138,1 54078U 22136AD  23152.41418079  .00001450  00000-0  10917-3 0  9996,2 54078  53.2152 188.5194 0000967  80.6458 279.4643 15.08836459 34307,6917.891,95.438,540.425,539.087,0.0
54078.0,STARLINK-5138,PAYLOAD,2023-06-01 19:28:44,15.08838395,9.43e-05,53.2154,186.7355,84.658,275.4519,8.3952e-05,1.049e-05,0.0,0 STARLINK-5138,1 54078U 22136AD  23152.81162102  .00001049  00000-0  83952-4 0  9997,2 54078  53.2154 186.7355 0000943  84.6580 275.4519 15.08838395 34840,6917.885,95.438,540.403,539.098,0.0
54078.0,STARLINK-5138,PAYLOAD,2023-06-02 09:47:12,15.08838561,0.0001042,53.2156,184.0592,84.5495,275.5616,3.5268e-05,2.74e-06,0.0,0 STARLINK-5138,1 54078U 22136AD  23153.40778316  .00000274  00000-0  35268-4 0  9999,2 54078  53.2156 184.0592 0001042  84.5495 275.5616 15.08838561 34452,6917.885,95.438,540.471,539.029,0.0
54078.0,STARLINK-5138,PAYLOAD,2023-06-03 08:02:36,15.08835248,0.0001013,53.2152,179.8953,84.209,275.9017,-6.3986e-06,-3.9e-06,0.0,0 STARLINK-5138,1 54078U 22136AD  23154.33514834 -.00000390  00000-0 -63986-5 0  9995,2 54078  53.2152 179.8953 0001013  84.2090 275.9017 15.08835248 35074,6917.895,95.438,540.461,539.059,0.0
54078.0,STARLINK-5138,PAYLOAD,2023-06-03 19:10:18,15.0883677,0.0001014,53.2152,177.8138,83.1948,276.9159,1.4522e-05,-5.7e-07,0.0,0 STARLINK-5138,1 54078U 22136AD  23154.79882758 -.00000057  00000-0  14522-4 0  9998,2 54078  53.2152 177.8138 0001014  83.1948 276.9159 15.08836770 34661,6917.89,95.438,540.457,539.054,0.0
54078.0,STARLINK-5138,PAYLOAD,2023-06-04 07:53:23,15.08838381,0.0001001,53.2153,175.435,79.7123,280.3982,4.8234e-05,4.8e-06,0.0,0 STARLINK-5138,1 54078U 22136AD  23155.32874635  .00000480  00000-0  48234-4 0  9999,2 54078  53.2153 175.4350 0001001  79.7123 280.3982 15.08838381 34746,6917.885,95.438,540.443,539.058,0.0
54078.0,STARLINK-5138,PAYLOAD,2023-06-05 04:33:24,15.08840448,9.65e-05,53.2153,171.5691,78.7317,281.3783,0.00010475,1.38e-05,0.0,0 STARLINK-5138,1 54078U 22136AD  23156.18986296  .00001380  00000-0  10475-3 0  9996,2 54078  53.2153 171.5691 0000965  78.7317 281.3783 15.08840448 35358,6917.879,95.438,540.412,539.076,0.0
54078.0,STARLINK-5138,PAYLOAD,2023-06-05 10:54:56,15.0884291,9.97e-05,53.2153,170.38,75.7497,284.3605,0.00010933,1.453e-05,0.0,0 STARLINK-5138,1 54078U 22136AD  23156.45482162  .00001453  00000-0  10933-3 0  9999,2 54078  53.2153 170.3800 0000997  75.7497 284.3605 15.08842910 34911,6917.871,95.437,540.426,539.047,0.0
